[{"OBJECT_NAME":"STARLINK-31934","OBJECT_ID":"2024-098V","EPOCH":"2026-03-09T21:57:47.126592","MEAN_MOTION":15.275847,"ECCENTRICITY":0.00012624,"INCLINATION":42.9994,"RA_OF_ASC_NODE":272.9982,"ARG_OF_PERICENTER":260.2759,"MEAN_ANOMALY":99.795,"EPHEMERIS_TYPE":0,"CLASSIFICATION_TYPE":"U","NORAD_CAT_ID":59877,"ELEMENT_SET_NO":999,"REV_AT_EPOCH":10192,"BSTAR":-0.00024836117,"MEAN_MOTION_DOT":-7.091e-5,"MEAN_MOTION_DDOT":0},{"OBJECT_NAME":"COSMOS 2251 DEB","OBJECT_ID":"1993-036SV","EPOCH":"2026-03-09T21:55:42.811680","MEAN_MOTION":15.15006345,"ECCENTRICITY":0.00579573,"INCLINATION":74.0283,"RA_OF_ASC_NODE":1.8812,"ARG_OF_PERICENTER":55.6817,"MEAN_ANOMALY":304.9843,"EPHEMERIS_TYPE":0,"CLASSIFICATION_TYPE":"U","NORAD_CAT_ID":34452,"ELEMENT_SET_NO":999,"REV_AT_EPOCH":91981,"BSTAR":0.0011020825,"MEAN_MOTION_DOT":0.00021495,"MEAN_MOTION_DDOT":0}]
